ELECTRON KICK STAGE R/B 
1 66555U 25267B   25348.47627064  .00025598  00000+0  79255-3 0  9996
2 66555  42.0199  46.7904 0006521  67.2555 292.8971 15.32916868  3671
STARLINK-35699          
1 66557U 25268A   25348.78338453  .00036403  00000+0  62300-3 0  9994
2 66557  42.9998 109.2470 0001482 278.5669  81.5023 15.50599431  4941
STARLINK-35695          
1 66558U 25268B   25348.39654891  .00142075  00000+0  23801-2 0  9994
2 66558  42.9996 111.5058 0003398 273.9479  86.0993 15.50619901  4888
STARLINK-35419          
1 66559U 25268C   25348.39620719  .00110293  00000+0  18573-2 0  9994
2 66559  43.0006 111.5031 0002547 263.7459  96.3111 15.50610650  4882
STARLINK-35411          
1 66560U 25268D   25348.39586762  .00119146  00000+0  20055-2 0  9999
2 66560  42.9999 111.5004 0002114 268.2256  91.8362 15.50584782  4882
STARLINK-35305          
1 66561U 25268E   25348.39518276  .00085888  00000+0  14529-2 0  9999
2 66561  43.0000 111.4952 0001665 263.4795  96.5876 15.50595766  4880
STARLINK-35579          
1 66562U 25268F   25348.39552573  .00080634  00000+0  13653-2 0  9999
2 66562  43.0000 111.4966 0001537 283.1897  76.8791 15.50596687  4886
STARLINK-35437          
1 66563U 25268G   25348.39484001  .00092625  00000+0  15649-2 0  9990
2 66563  42.9994 111.4909 0001607 261.4336  98.6342 15.50599771  4880
STARLINK-35358          
1 66564U 25268H   25348.39449453  .00087510  00000+0  14791-2 0  9997
2 66564  42.9991 111.4875 0001190 265.2682  94.8042 15.50612702  4888
STARLINK-35893          
1 66565U 25268J   25348.39415448  .00085652  00000+0  14479-2 0  9993
2 66565  42.9994 111.4854 0000544 325.9619  34.1206 15.50617193  4883
STARLINK-35871          
1 66566U 25268K   25348.39380360  .00086174  00000+0  14564-2 0  9993
2 66566  42.9993 111.4823 0001485 258.6406 101.4287 15.50620861  4883
STARLINK-35825          
1 66567U 25268L   25348.65112306  .00086002  00000+0  14540-2 0  9990
2 66567  42.9994 109.9720 0001968 277.0359  83.0278 15.50612178  4923
