CCSDS_OMM_VERS = 2.0
CREATION_DATE  = 
ORIGINATOR     = 

OBJECT_NAME    = ELECTRON KICK STAGE R/B
OBJECT_ID      = 2025-267B
CENTER_NAME    = EARTH
REF_FRAME      = TEME
TIME_SYSTEM    = UTC
MEAN_ELEMENT_THEORY = SGP/SGP4

EPOCH          = 2025-12-14T11:25:49.783296
MEAN_MOTION    = 15.32916868
ECCENTRICITY   = .00065219
INCLINATION    = 42.0199
RA_OF_ASC_NODE = 46.7904
ARG_OF_PERICENTER = 67.2555
MEAN_ANOMALY   = 292.8971

EPHEMERIS_TYPE = 0
CLASSIFICATION_TYPE = U
NORAD_CAT_ID   = 66555
ELEMENT_SET_NO = 999
REV_AT_EPOCH   = 367
BSTAR          = .79255436E-3
MEAN_MOTION_DOT = .25598E-3
MEAN_MOTION_DDOT = 0

CCSDS_OMM_VERS = 2.0
CREATION_DATE  = 
ORIGINATOR     = 

OBJECT_NAME    = STARLINK-35699
OBJECT_ID      = 2025-268A
CENTER_NAME    = EARTH
REF_FRAME      = TEME
TIME_SYSTEM    = UTC
MEAN_ELEMENT_THEORY = SGP/SGP4

EPOCH          = 2025-12-14T18:48:04.423392
MEAN_MOTION    = 15.50599431
ECCENTRICITY   = .00014823
INCLINATION    = 42.9998
RA_OF_ASC_NODE = 109.2470
ARG_OF_PERICENTER = 278.5669
MEAN_ANOMALY   = 81.5023

EPHEMERIS_TYPE = 0
CLASSIFICATION_TYPE = U
NORAD_CAT_ID   = 66557
ELEMENT_SET_NO = 999
REV_AT_EPOCH   = 494
BSTAR          = .62299681E-3
MEAN_MOTION_DOT = .36403E-3
MEAN_MOTION_DDOT = 0

CCSDS_OMM_VERS = 2.0
CREATION_DATE  = 
ORIGINATOR     = 

OBJECT_NAME    = STARLINK-35695
OBJECT_ID      = 2025-268B
CENTER_NAME    = EARTH
REF_FRAME      = TEME
TIME_SYSTEM    = UTC
MEAN_ELEMENT_THEORY = SGP/SGP4

EPOCH          = 2025-12-14T09:31:01.825824
MEAN_MOTION    = 15.50619901
ECCENTRICITY   = .00033984
INCLINATION    = 42.9996
RA_OF_ASC_NODE = 111.5058
ARG_OF_PERICENTER = 273.9479
MEAN_ANOMALY   = 86.0993

EPHEMERIS_TYPE = 0
CLASSIFICATION_TYPE = U
NORAD_CAT_ID   = 66558
ELEMENT_SET_NO = 999
REV_AT_EPOCH   = 488
BSTAR          = .23801363E-2
MEAN_MOTION_DOT = .142075E-2
MEAN_MOTION_DDOT = 0

CCSDS_OMM_VERS = 2.0
CREATION_DATE  = 
ORIGINATOR     = 

OBJECT_NAME    = STARLINK-35419
OBJECT_ID      = 2025-268C
CENTER_NAME    = EARTH
REF_FRAME      = TEME
TIME_SYSTEM    = UTC
MEAN_ELEMENT_THEORY = SGP/SGP4

EPOCH          = 2025-12-14T09:30:32.301216
MEAN_MOTION    = 15.50610650
ECCENTRICITY   = .00025477
INCLINATION    = 43.0006
RA_OF_ASC_NODE = 111.5031
ARG_OF_PERICENTER = 263.7459
MEAN_ANOMALY   = 96.3111

EPHEMERIS_TYPE = 0
CLASSIFICATION_TYPE = U
NORAD_CAT_ID   = 66559
ELEMENT_SET_NO = 999
REV_AT_EPOCH   = 488
BSTAR          = .1857265E-2
MEAN_MOTION_DOT = .110293E-2
MEAN_MOTION_DDOT = 0

CCSDS_OMM_VERS = 2.0
CREATION_DATE  = 
ORIGINATOR     = 

OBJECT_NAME    = STARLINK-35411
OBJECT_ID      = 2025-268D
CENTER_NAME    = EARTH
REF_FRAME      = TEME
TIME_SYSTEM    = UTC
MEAN_ELEMENT_THEORY = SGP/SGP4

EPOCH          = 2025-12-14T09:30:02.962368
MEAN_MOTION    = 15.50584782
ECCENTRICITY   = .00021147
INCLINATION    = 42.9999
RA_OF_ASC_NODE = 111.5004
ARG_OF_PERICENTER = 268.2256
MEAN_ANOMALY   = 91.8362

EPHEMERIS_TYPE = 0
CLASSIFICATION_TYPE = U
NORAD_CAT_ID   = 66560
ELEMENT_SET_NO = 999
REV_AT_EPOCH   = 488
BSTAR          = .20055135E-2
MEAN_MOTION_DOT = .119146E-2
MEAN_MOTION_DDOT = 0

CCSDS_OMM_VERS = 2.0
CREATION_DATE  = 
ORIGINATOR     = 

OBJECT_NAME    = STARLINK-35305
OBJECT_ID      = 2025-268E
CENTER_NAME    = EARTH
REF_FRAME      = TEME
TIME_SYSTEM    = UTC
MEAN_ELEMENT_THEORY = SGP/SGP4

EPOCH          = 2025-12-14T09:29:03.790464
MEAN_MOTION    = 15.50595766
ECCENTRICITY   = .00016653
INCLINATION    = 43.0000
RA_OF_ASC_NODE = 111.4952
ARG_OF_PERICENTER = 263.4795
MEAN_ANOMALY   = 96.5876

EPHEMERIS_TYPE = 0
CLASSIFICATION_TYPE = U
NORAD_CAT_ID   = 66561
ELEMENT_SET_NO = 999
REV_AT_EPOCH   = 488
BSTAR          = .14529464E-2
MEAN_MOTION_DOT = .85888E-3
MEAN_MOTION_DDOT = 0

CCSDS_OMM_VERS = 2.0
CREATION_DATE  = 
ORIGINATOR     = 

OBJECT_NAME    = STARLINK-35579
OBJECT_ID      = 2025-268F
CENTER_NAME    = EARTH
REF_FRAME      = TEME
TIME_SYSTEM    = UTC
MEAN_ELEMENT_THEORY = SGP/SGP4

EPOCH          = 2025-12-14T09:29:33.423072
MEAN_MOTION    = 15.50596687
ECCENTRICITY   = .0001537
INCLINATION    = 43.0000
RA_OF_ASC_NODE = 111.4966
ARG_OF_PERICENTER = 283.1897
MEAN_ANOMALY   = 76.8791

EPHEMERIS_TYPE = 0
CLASSIFICATION_TYPE = U
NORAD_CAT_ID   = 66562
ELEMENT_SET_NO = 999
REV_AT_EPOCH   = 488
BSTAR          = .13652976E-2
MEAN_MOTION_DOT = .80634E-3
MEAN_MOTION_DDOT = 0

CCSDS_OMM_VERS = 2.0
CREATION_DATE  = 
ORIGINATOR     = 

OBJECT_NAME    = STARLINK-35437
OBJECT_ID      = 2025-268G
CENTER_NAME    = EARTH
REF_FRAME      = TEME
TIME_SYSTEM    = UTC
MEAN_ELEMENT_THEORY = SGP/SGP4

EPOCH          = 2025-12-14T09:28:34.176864
MEAN_MOTION    = 15.50599771
ECCENTRICITY   = .00016075
INCLINATION    = 42.9994
RA_OF_ASC_NODE = 111.4909
ARG_OF_PERICENTER = 261.4336
MEAN_ANOMALY   = 98.6342

EPHEMERIS_TYPE = 0
CLASSIFICATION_TYPE = U
NORAD_CAT_ID   = 66563
ELEMENT_SET_NO = 999
REV_AT_EPOCH   = 488
BSTAR          = .15648949E-2
MEAN_MOTION_DOT = .92625E-3
MEAN_MOTION_DDOT = 0

CCSDS_OMM_VERS = 2.0
CREATION_DATE  = 
ORIGINATOR     = 

OBJECT_NAME    = STARLINK-35358
OBJECT_ID      = 2025-268H
CENTER_NAME    = EARTH
REF_FRAME      = TEME
TIME_SYSTEM    = UTC
MEAN_ELEMENT_THEORY = SGP/SGP4

EPOCH          = 2025-12-14T09:28:04.327392
MEAN_MOTION    = 15.50612702
ECCENTRICITY   = .00011901
INCLINATION    = 42.9991
RA_OF_ASC_NODE = 111.4875
ARG_OF_PERICENTER = 265.2682
MEAN_ANOMALY   = 94.8042

EPHEMERIS_TYPE = 0
CLASSIFICATION_TYPE = U
NORAD_CAT_ID   = 66564
ELEMENT_SET_NO = 999
REV_AT_EPOCH   = 488
BSTAR          = .14790939E-2
MEAN_MOTION_DOT = .8751E-3
MEAN_MOTION_DDOT = 0

CCSDS_OMM_VERS = 2.0
CREATION_DATE  = 
ORIGINATOR     = 

OBJECT_NAME    = STARLINK-35893
OBJECT_ID      = 2025-268J
CENTER_NAME    = EARTH
REF_FRAME      = TEME
TIME_SYSTEM    = UTC
MEAN_ELEMENT_THEORY = SGP/SGP4

EPOCH          = 2025-12-14T09:27:34.947072
MEAN_MOTION    = 15.50617193
ECCENTRICITY   = .00005449
INCLINATION    = 42.9994
RA_OF_ASC_NODE = 111.4854
ARG_OF_PERICENTER = 325.9619
MEAN_ANOMALY   = 34.1206

EPHEMERIS_TYPE = 0
CLASSIFICATION_TYPE = U
NORAD_CAT_ID   = 66565
ELEMENT_SET_NO = 999
REV_AT_EPOCH   = 488
BSTAR          = .14479257E-2
MEAN_MOTION_DOT = .85652E-3
MEAN_MOTION_DDOT = 0

CCSDS_OMM_VERS = 2.0
CREATION_DATE  = 
ORIGINATOR     = 

OBJECT_NAME    = STARLINK-35871
OBJECT_ID      = 2025-268K
CENTER_NAME    = EARTH
REF_FRAME      = TEME
TIME_SYSTEM    = UTC
MEAN_ELEMENT_THEORY = SGP/SGP4

EPOCH          = 2025-12-14T09:27:04.631040
MEAN_MOTION    = 15.50620861
ECCENTRICITY   = .0001485
INCLINATION    = 42.9993
RA_OF_ASC_NODE = 111.4823
ARG_OF_PERICENTER = 258.6406
MEAN_ANOMALY   = 101.4287

EPHEMERIS_TYPE = 0
CLASSIFICATION_TYPE = U
NORAD_CAT_ID   = 66566
ELEMENT_SET_NO = 999
REV_AT_EPOCH   = 488
BSTAR          = .14564171E-2
MEAN_MOTION_DOT = .86174E-3
MEAN_MOTION_DDOT = 0

CCSDS_OMM_VERS = 2.0
CREATION_DATE  = 
ORIGINATOR     = 

OBJECT_NAME    = STARLINK-35825
OBJECT_ID      = 2025-268L
CENTER_NAME    = EARTH
REF_FRAME      = TEME
TIME_SYSTEM    = UTC
MEAN_ELEMENT_THEORY = SGP/SGP4

EPOCH          = 2025-12-14T15:37:37.032384
MEAN_MOTION    = 15.50612178
ECCENTRICITY   = .00019681
INCLINATION    = 42.9994
RA_OF_ASC_NODE = 109.9720
ARG_OF_PERICENTER = 277.0359
MEAN_ANOMALY   = 83.0278

EPHEMERIS_TYPE = 0
CLASSIFICATION_TYPE = U
NORAD_CAT_ID   = 66567
ELEMENT_SET_NO = 999
REV_AT_EPOCH   = 492
BSTAR          = .14539761E-2
MEAN_MOTION_DOT = .86002E-3
MEAN_MOTION_DDOT = 0

